[
    {
        "Altitude(m)": 607895.841243762,
        "Argument of Periapsis(deg)": 0.0,
        "Eccentricity": 0.0,
        "Inclination(deg)": 60.0,
        "Latitude(deg)": 40.998404217535146,
        "Longitude(deg)": 40.088573360903766,
        "Mean Anomaly(deg)": -229.09090000000006,
        "RAAN(deg)": 350.0,
        "Satellite Name": "Test1 1548",
        "Satellite Number": 1548,
        "Semi-Major Axis(m)": 6980739.136638005,
        "Time(s)": 0
    },
    {
        "Altitude(m)": 607795.1542947873,
        "Argument of Periapsis(deg)": 0.00010418945913296404,
        "Eccentricity": 0.0,
        "Inclination(deg)": 60.0,
        "Latitude(deg)": 40.5307292056181,
        "Longitude(deg)": 40.58516885643096,
        "Mean Anomaly(deg)": -228.4707938545382,
        "RAAN(deg)": 349.99957995086027,
        "Satellite Name": "Test1 1548",
        "Satellite Number": 1548,
        "Semi-Major Axis(m)": 6980739.136638005,
        "Time(s)": 10
    }
]